{
  "type": "FeatureCollection",
  "features": [
    {
      "type": "Feature",
      "properties": {
        "norad_id": 34765,
        "name": "IRIDIUM 33 DEB",
        "group": "iridium-33-debris",
        "lat": 71.87411469637657,
        "lon": 47.15249202502705,
        "alt_km": 760.3572244935767,
        "timestamp": "2025-12-05T11:32:56.402663+00:00",
        "meta_object_name": "IRIDIUM 33 DEB",
        "meta_object_id": "1997-051LJ",
        "meta_epoch": "2025-12-04T15:47:27.445056",
        "meta_mean_motion": 14.40432843,
        "meta_eccentricity": 0.0014681,
        "meta_inclination": 86.3397,
        "meta_ra_of_asc_node": 36.2288,
        "meta_arg_of_pericenter": 240.3443,
        "meta_mean_anomaly": 245.6527,
        "meta_ephemeris_type": 0,
        "meta_classification_type": "U",
        "meta_norad_cat_id": 34765,
        "meta_element_set_no": 999,
        "meta_rev_at_epoch": 87497,
        "meta_bstar": 0.00077372,
        "meta_mean_motion_dot": 2.479e-05,
        "meta_mean_motion_ddot": 0,
        "tle_line1": "1 34765U 97051LJ  25338.65795654  .00002479  00000+0  77372-3 0  9995",
        "tle_line2": "2 34765  86.3397  36.2288 0014681 240.3443 245.6527 14.40432843874971"
      },
      "geometry": {
        "type": "Point",
        "coordinates": [
          47.15249202502705,
          71.87411469637657
        ]
      }
    },
    {
      "type": "Feature",
      "properties": {
        "norad_id": 34833,
        "name": "IRIDIUM 33 DEB",
        "group": "iridium-33-debris",
        "lat": -47.745474744663696,
        "lon": -121.89788355965878,
        "alt_km": 729.535211647798,
        "timestamp": "2025-12-05T11:32:56.402674+00:00",
        "meta_object_name": "IRIDIUM 33 DEB",
        "meta_object_id": "1997-051MH",
        "meta_epoch": "2025-12-04T11:26:09.511872",
        "meta_mean_motion": 14.52297117,
        "meta_eccentricity": 0.00216,
        "meta_inclination": 86.3942,
        "meta_ra_of_asc_node": 54.5547,
        "meta_arg_of_pericenter": 123.9185,
        "meta_mean_anomaly": 254.0843,
        "meta_ephemeris_type": 0,
        "meta_classification_type": "U",
        "meta_norad_cat_id": 34833,
        "meta_element_set_no": 999,
        "meta_rev_at_epoch": 87595,
        "meta_bstar": 0.0019345,
        "meta_mean_motion_dot": 7.908e-05,
        "meta_mean_motion_ddot": 0,
        "tle_line1": "1 34833U 97051MH  25338.47649898  .00007908  00000+0  19345-2 0  9996",
        "tle_line2": "2 34833  86.3942  54.5547 0021600 123.9185 254.0843 14.52297117875952"
      },
      "geometry": {
        "type": "Point",
        "coordinates": [
          -121.89788355965878,
          -47.745474744663696
        ]
      }
    },
    {
      "type": "Feature",
      "properties": {
        "norad_id": 34870,
        "name": "IRIDIUM 33 DEB",
        "group": "iridium-33-debris",
        "lat": -65.63838867011894,
        "lon": -50.78465733096961,
        "alt_km": 647.4683921294609,
        "timestamp": "2025-12-05T11:32:56.402684+00:00",
        "meta_object_name": "IRIDIUM 33 DEB",
        "meta_object_id": "1997-051MQ",
        "meta_epoch": "2025-12-03T16:42:25.585344",
        "meta_mean_motion": 14.7612151,
        "meta_eccentricity": 0.00150063,
        "meta_inclination": 86.3102,
        "meta_ra_of_asc_node": 318.2257,
        "meta_arg_of_pericenter": 217.2591,
        "meta_mean_anomaly": 316.7951,
        "meta_ephemeris_type": 0,
        "meta_classification_type": "U",
        "meta_norad_cat_id": 34870,
        "meta_element_set_no": 999,
        "meta_rev_at_epoch": 88777,
        "meta_bstar": 0.002200073,
        "meta_mean_motion_dot": 0.00015256,
        "meta_mean_motion_ddot": 0,
        "tle_line1": "1 34870U 97051MQ  25337.69612946  .00015256  00000+0  22001-2 0  9992",
        "tle_line2": "2 34870  86.3102 318.2257 0015006 217.2591 316.7951 14.76121510887778"
      },
      "geometry": {
        "type": "Point",
        "coordinates": [
          -50.78465733096961,
          -65.63838867011894
        ]
      }
    },
    {
      "type": "Feature",
      "properties": {
        "norad_id": 34896,
        "name": "IRIDIUM 33 DEB",
        "group": "iridium-33-debris",
        "lat": 38.57713707135657,
        "lon": -27.123036654427377,
        "alt_km": 685.9828144272706,
        "timestamp": "2025-12-05T11:32:56.402694+00:00",
        "meta_object_name": "IRIDIUM 33 DEB",
        "meta_object_id": "1997-051MY",
        "meta_epoch": "2025-12-04T05:57:48.984768",
        "meta_mean_motion": 14.66139548,
        "meta_eccentricity": 0.0023794,
        "meta_inclination": 86.3283,
        "meta_ra_of_asc_node": 330.4937,
        "meta_arg_of_pericenter": 245.976,
        "meta_mean_anomaly": 130.3952,
        "meta_ephemeris_type": 0,
        "meta_classification_type": "U",
        "meta_norad_cat_id": 34896,
        "meta_element_set_no": 999,
        "meta_rev_at_epoch": 87495,
        "meta_bstar": 0.0021831,
        "meta_mean_motion_dot": 0.00012077,
        "meta_mean_motion_ddot": 0,
        "tle_line1": "1 34896U 97051MY  25338.24848362  .00012077  00000+0  21831-2 0  9993",
        "tle_line2": "2 34896  86.3283 330.4937 0023794 245.9760 130.3952 14.66139548874952"
      },
      "geometry": {
        "type": "Point",
        "coordinates": [
          -27.123036654427377,
          38.57713707135657
        ]
      }
    },
    {
      "type": "Feature",
      "properties": {
        "norad_id": 34926,
        "name": "IRIDIUM 33 DEB",
        "group": "iridium-33-debris",
        "lat": 79.90192347847002,
        "lon": 33.96384661351612,
        "alt_km": 734.9107275426295,
        "timestamp": "2025-12-05T11:32:56.402705+00:00",
        "meta_object_name": "IRIDIUM 33 DEB",
        "meta_object_id": "1997-051NF",
        "meta_epoch": "2025-12-04T14:18:19.461312",
        "meta_mean_motion": 14.53845414,
        "meta_eccentricity": 0.0076693,
        "meta_inclination": 86.1322,
        "meta_ra_of_asc_node": 12.0478,
        "meta_arg_of_pericenter": 320.5394,
        "meta_mean_anomaly": 169.4917,
        "meta_ephemeris_type": 0,
        "meta_classification_type": "U",
        "meta_norad_cat_id": 34926,
        "meta_element_set_no": 999,
        "meta_rev_at_epoch": 86338,
        "meta_bstar": 0.012333,
        "meta_mean_motion_dot": 0.00054245,
        "meta_mean_motion_ddot": 0,
        "tle_line1": "1 34926U 97051NF  25338.59605858  .00054245  00000+0  12333-1 0  9995",
        "tle_line2": "2 34926  86.1322  12.0478 0076693 320.5394 169.4917 14.53845414863381"
      },
      "geometry": {
        "type": "Point",
        "coordinates": [
          33.96384661351612,
          79.90192347847002
        ]
      }
    },
    {
      "type": "Feature",
      "properties": {
        "norad_id": 34985,
        "name": "IRIDIUM 33 DEB",
        "group": "iridium-33-debris",
        "lat": 17.5756267284235,
        "lon": -121.1761253001838,
        "alt_km": 750.8395941096614,
        "timestamp": "2025-12-05T11:32:56.402715+00:00",
        "meta_object_name": "IRIDIUM 33 DEB",
        "meta_object_id": "1997-051NR",
        "meta_epoch": "2025-12-03T17:45:54.671040",
        "meta_mean_motion": 14.41942363,
        "meta_eccentricity": 0.0019945,
        "meta_inclination": 86.3703,
        "meta_ra_of_asc_node": 60.7182,
        "meta_arg_of_pericenter": 251.1586,
        "meta_mean_anomaly": 239.5788,
        "meta_ephemeris_type": 0,
        "meta_classification_type": "U",
        "meta_norad_cat_id": 34985,
        "meta_element_set_no": 999,
        "meta_rev_at_epoch": 87045,
        "meta_bstar": 0.0011135704,
        "meta_mean_motion_dot": 3.675e-05,
        "meta_mean_motion_ddot": 0,
        "tle_line1": "1 34985U 97051NR  25337.74021610  .00003675  00000+0  11136-2 0  9996",
        "tle_line2": "2 34985  86.3703  60.7182 0019945 251.1586 239.5788 14.41942363870451"
      },
      "geometry": {
        "type": "Point",
        "coordinates": [
          -121.1761253001838,
          17.5756267284235
        ]
      }
    },
    {
      "type": "Feature",
      "properties": {
        "norad_id": 35051,
        "name": "IRIDIUM 33 DEB",
        "group": "iridium-33-debris",
        "lat": -50.546270055329366,
        "lon": 7.548793474286845,
        "alt_km": 747.6795668758432,
        "timestamp": "2025-12-05T11:32:56.402725+00:00",
        "meta_object_name": "IRIDIUM 33 DEB",
        "meta_object_id": "1997-051NX",
        "meta_epoch": "2025-12-02T20:44:20.358528",
        "meta_mean_motion": 14.47524123,
        "meta_eccentricity": 0.00104766,
        "meta_inclination": 86.3255,
        "meta_ra_of_asc_node": 13.167,
        "meta_arg_of_pericenter": 117.6322,
        "meta_mean_anomaly": 242.5946,
        "meta_ephemeris_type": 0,
        "meta_classification_type": "U",
        "meta_norad_cat_id": 35051,
        "meta_element_set_no": 999,
        "meta_rev_at_epoch": 86853,
        "meta_bstar": 0.00083073982,
        "meta_mean_motion_dot": 3.075e-05,
        "meta_mean_motion_ddot": 0,
        "tle_line1": "1 35051U 97051NX  25336.86412452  .00003075  00000+0  83074-3 0  9996",
        "tle_line2": "2 35051  86.3255  13.1670 0010476 117.6322 242.5946 14.47524123868538"
      },
      "geometry": {
        "type": "Point",
        "coordinates": [
          7.548793474286845,
          -50.546270055329366
        ]
      }
    }
  ]
}